{
  "norad_id": 46700,
  "name": "STARLINK-1800",
  "history": [
    {
      "epoch": "2026-04-10T12:00:02.000160Z",
      "apogee_km": 281.62606579550265,
      "perigee_km": 274.6848840026778,
      "latitude_deg": 49.73701186339897,
      "longitude_deg": 91.2775907140702,
      "height_km": 281.0722559237721,
      "semi_major_axis_km": 6656.29247489909,
      "eccentricity": 0.0005214,
      "inclination_deg": 53.032,
      "raan_deg": 47.9329,
      "arg_perigee_deg": 108.5615,
      "mean_anomaly_deg": 323.8228,
      "mean_motion_rev_day": 15.98652854
    },
    {
      "epoch": "2026-04-11T20:00:01.000224Z",
      "apogee_km": 277.8766830227796,
      "perigee_km": 271.24527367796054,
      "latitude_deg": -10.859460511037527,
      "longitude_deg": 89.24983763767577,
      "height_km": 276.29737781487154,
      "semi_major_axis_km": 6652.69797835037,
      "eccentricity": 0.0004984,
      "inclination_deg": 53.032,
      "raan_deg": 41.0466,
      "arg_perigee_deg": 124.9026,
      "mean_anomaly_deg": 68.4988,
      "mean_motion_rev_day": 15.99948673
    },
    {
      "epoch": "2026-04-13T22:08:24.559872Z",
      "apogee_km": 272.7525096976715,
      "perigee_km": 266.46772957076973,
      "latitude_deg": 1.2224054997244035e-05,
      "longitude_deg": -143.97405625652308,
      "height_km": 272.82881240833245,
      "semi_major_axis_km": 6647.74711963422,
      "eccentricity": 0.0004727,
      "inclination_deg": 53.0318,
      "raan_deg": 30.2346,
      "arg_perigee_deg": 137.3183,
      "mean_anomaly_deg": 222.8215,
      "mean_motion_rev_day": 16.0173633
    },
    {
      "epoch": "2026-04-14T22:05:37.889088Z",
      "apogee_km": 270.31954044214945,
      "perigee_km": 264.0822263048158,
      "latitude_deg": 1.0149186589138116e-05,
      "longitude_deg": -149.4386383835737,
      "height_km": 270.7076707637438,
      "semi_major_axis_km": 6645.337883373482,
      "eccentricity": 0.0004693,
      "inclination_deg": 53.0321,
      "raan_deg": 25.0593,
      "arg_perigee_deg": 146.3752,
      "mean_anomaly_deg": 213.7577,
      "mean_motion_rev_day": 16.02607462
    },
    {
      "epoch": "2026-04-15T22:02:02.359968Z",
      "apogee_km": 267.6494142070542,
      "perigee_km": 261.14238897665473,
      "latitude_deg": -2.2782347323869616e-05,
      "longitude_deg": -154.70330930793563,
      "height_km": 268.34807577245186,
      "semi_major_axis_km": 6642.532901591854,
      "eccentricity": 0.0004898,
      "inclination_deg": 53.0315,
      "raan_deg": 19.8798,
      "arg_perigee_deg": 159.1596,
      "mean_anomaly_deg": 200.9635,
      "mean_motion_rev_day": 16.03622683
    },
    {
      "epoch": "2026-04-16T21:57:36.747360Z",
      "apogee_km": 265.341373646037,
      "perigee_km": 258.1185263778134,
      "latitude_deg": -1.8408324854519418e-05,
      "longitude_deg": -159.76269982739637,
      "height_km": 266.2350967688336,
      "semi_major_axis_km": 6639.866950011925,
      "eccentricity": 0.0005439,
      "inclination_deg": 53.0317,
      "raan_deg": 14.6963,
      "arg_perigee_deg": 174.0039,
      "mean_anomaly_deg": 186.1058,
      "mean_motion_rev_day": 16.04588578
    },
    {
      "epoch": "2026-04-17T23:21:55.854432Z",
      "apogee_km": 261.980849254267,
      "perigee_km": 255.37575792782627,
      "latitude_deg": 2.3462662712490858e-05,
      "longitude_deg": 172.60336109096576,
      "height_km": 262.87342478828697,
      "semi_major_axis_km": 6636.815303591046,
      "eccentricity": 0.00049761,
      "inclination_deg": 53.0318,
      "raan_deg": 9.1853,
      "arg_perigee_deg": 186.7233,
      "mean_anomaly_deg": 173.3733,
      "mean_motion_rev_day": 16.05695404
    },
    {
      "epoch": "2026-04-18T12:48:23.984352Z",
      "apogee_km": 259.8047724884227,
      "perigee_km": 251.57100171504953,
      "latitude_deg": 2.432273702867707e-05,
      "longitude_deg": -32.486654538981774,
      "height_km": 260.4295112656111,
      "semi_major_axis_km": 6633.824887101736,
      "eccentricity": 0.00062059,
      "inclination_deg": 53.0303,
      "raan_deg": 6.2645,
      "arg_perigee_deg": 201.7282,
      "mean_anomaly_deg": 158.3488,
      "mean_motion_rev_day": 16.06781257
    },
    {
      "epoch": "2026-04-19T23:07:38.536608Z",
      "apogee_km": 253.56089694740513,
      "perigee_km": 246.76821351360468,
      "latitude_deg": 2.9643744393085086e-05,
      "longitude_deg": 163.8205123958192,
      "height_km": 254.1793196319626,
      "semi_major_axis_km": 6628.301555230504,
      "eccentricity": 0.0005124,
      "inclination_deg": 53.0295,
      "raan_deg": 358.7918,
      "arg_perigee_deg": 204.2353,
      "mean_anomaly_deg": 155.844,
      "mean_motion_rev_day": 16.0879006
    },
    {
      "epoch": "2026-04-20T21:28:59.211264Z",
      "apogee_km": 249.76207258124123,
      "perigee_km": 242.12318395392322,
      "latitude_deg": 5.005216290879212e-05,
      "longitude_deg": -177.31633649240877,
      "height_km": 249.84418080684466,
      "semi_major_axis_km": 6624.079628267582,
      "eccentricity": 0.0005766,
      "inclination_deg": 53.0283,
      "raan_deg": 353.9092,
      "arg_perigee_deg": 218.6684,
      "mean_anomaly_deg": 141.3938,
      "mean_motion_rev_day": 16.10328374
    }
  ]
}